[{"OBJECT_NAME":"STARLINK-34989","OBJECT_ID":"2025-179S","EPOCH":"2026-03-09T16:50:12.215328","MEAN_MOTION":15.05647599,"ECCENTRICITY":0.00011052,"INCLINATION":97.6025,"RA_OF_ASC_NODE":113.0321,"ARG_OF_PERICENTER":124.2486,"MEAN_ANOMALY":235.8845,"EPHEMERIS_TYPE":0,"CLASSIFICATION_TYPE":"U","NORAD_CAT_ID":65251,"ELEMENT_SET_NO":999,"REV_AT_EPOCH":3199,"BSTAR":4.1197212e-5,"MEAN_MOTION_DOT":5.34e-6,"MEAN_MOTION_DDOT":0},{"OBJECT_NAME":"CZ-6A R\/B","OBJECT_ID":"2022-031C","EPOCH":"2026-03-09T19:50:55.360896","MEAN_MOTION":15.07476837,"ECCENTRICITY":0.00174842,"INCLINATION":97.8104,"RA_OF_ASC_NODE":273.2347,"ARG_OF_PERICENTER":181.6412,"MEAN_ANOMALY":178.4761,"EPHEMERIS_TYPE":0,"CLASSIFICATION_TYPE":"U","NORAD_CAT_ID":52152,"ELEMENT_SET_NO":999,"REV_AT_EPOCH":21633,"BSTAR":0.00020233161,"MEAN_MOTION_DOT":3.012e-5,"MEAN_MOTION_DDOT":0}]
